From:	Horizons Ephemeris System <horizons@ssd.jpl.nasa.gov>
Sent:	Wednesday, March 4, 2020 9:51 AM
Subject:	[Horizons] MAJOR BODY #C(usr={0.,-90.,.600^G}@301)_T(301) (1/1)

 Automated mail xmit by MAIL_REQUEST, PID= 17464 Wed Mar  4 07:50:36 2020
++++++++++++++++++++++++++++++++ (part 1 of 1)  +++++++++++++++++++++++++++++++
*******************************************************************************
 Revised: July 31, 2013             Moon / (Earth)                          301
 
 GEOPHYSICAL DATA (updated 2018-Aug-15):
  Vol. mean radius, km  = 1737.53+-0.03    Mass, x10^22 kg       =    7.349
  Radius (gravity), km  = 1738.0           Surface emissivity    =    0.92
  Radius (IAU), km      = 1737.4           GM, km^3/s^2          = 4902.800066
  Density, g/cm^3       =    3.3437        GM 1-sigma, km^3/s^2  =  +-0.0001  
  V(1,0)                =   +0.21          Surface accel., m/s^2 =    1.62
  Earth/Moon mass ratio = 81.3005690769    Farside crust. thick. = ~80 - 90 km
  Mean crustal density  = 2.97+-.07 g/cm^3 Nearside crust. thick.= 58+-8 km 
  Heat flow, Apollo 15  = 3.1+-.6 mW/m^2   Mean angular diameter = 31'05.2"
  Heat flow, Apollo 17  = 2.2+-.5 mW/m^2   Sid. rot. rate, rad/s = 0.0000026617
  Geometric Albedo      = 0.12             Mean solar day        = 29.5306 d
  Obliquity to orbit    = 6.67 deg         Orbit period          = 27.321582 d
  Semi-major axis, a    = 384400 km        Eccentricity          = 0.05490
  Mean motion, rad/s    = 2.6616995x10^-6  Inclination           = 5.145 deg
  Apsidal period        = 3231.50 d        Nodal period          = 6798.38 d
                                 Perihelion  Aphelion    Mean
  Solar Constant (W/m^2)         1414+-7     1323+-7     1368+-7
  Maximum Planetary IR (W/m^2)   1314        1226        1268
  Minimum Planetary IR (W/m^2)      5.2         5.2         5.2
 *******************************************************************************
 
 
*******************************************************************************
Ephemeris / MAIL_REQUEST Wed Mar  4 07:50:35 2020 Pasadena, USA  / Horizons    
*******************************************************************************
Target body name: Moon (301)                      {source: DE431mx}
Center body name: Moon (301)                      {source: DE431mx}
Center-site name: (user defined site below)
*******************************************************************************
Start time      : A.D. 2020-Jan-01 00:00:00.0000 TDB
Stop  time      : A.D. 2039-Jan-01 00:00:00.0000 TDB
Step-size       : 10000 steps
*******************************************************************************
Center geodetic : 0.00000000,-90.000000,0.6000000 {E-lon(deg),Lat(deg),Alt(km)}
Center cylindric: 0.00000000,1.0642E-13,-1738.000 {E-lon(deg),Dxy(km),Dz(km)}
Center pole/equ : IAU_MOON                        {East-longitude positive}
Center radii    : 1737.4 x 1737.4 x 1737.4 km     {Equator, meridian, pole}    
Output units    : KM-S                                                         
Output type     : GEOMETRIC cartesian states
Output format   : 3 (position, velocity, LT, range, range-rate)
Reference frame : ICRF/J2000.0                                                 
Coordinate systm: Ecliptic and Mean Equinox of Reference Epoch                 
*******************************************************************************
JDTDB
   X     Y     Z
   VX    VY    VZ
   LT    RG    RR
*******************************************************************************
$$SOE
2462648.456000002 = A.D. 2030-May-26 22:56:38.4001 TDB 
   4.585375744025086E+01 -1.118484892902291E+01  1.737359010706493E+03
   1.288262499568015E-06  7.557718817580392E-07 -2.913530337734409E-08
   5.797343974543882E-03  1.738000000000000E+03 -5.458440166425871E-23
2462649.150000001 = A.D. 2030-May-27 15:36:00.0001 TDB 
   4.592270770097369E+01 -1.113434872715197E+01  1.737357513926202E+03
   1.009351219861663E-06  9.178165612433598E-07 -2.079759121957219E-08
   5.797343974543883E-03  1.738000000000000E+03  3.898885833161336E-24
2462649.844000001 = A.D. 2030-May-28 08:15:21.6001 TDB 
   4.597470457794481E+01 -1.107604906620065E+01  1.737356511391964E+03
   7.254889403491854E-07  1.016588793930478E-06 -1.271722424299344E-08
   5.797343974543883E-03  1.738000000000000E+03 -4.483718708135537E-23
2462650.538000002 = A.D. 2030-May-29 00:54:43.2001 TDB 
   4.600991135143754E+01 -1.101358150510885E+01  1.737355976499884E+03
   4.515553092827018E-07  1.058172196106113E-06 -5.250365581664114E-09
   5.797343974543884E-03  1.738000000000000E+03 -3.801413687332302E-23
2462651.232000002 = A.D. 2030-May-29 17:34:04.8001 TDB 
   4.602928862876240E+01 -1.095010381703571E+01  1.737355864471849E+03
   1.991018271099567E-07  1.052089621522701E-06  1.356069393795399E-09
   5.797343974543882E-03  1.738000000000000E+03 -9.259853853758174E-24
2462651.926000001 = A.D. 2030-May-30 10:13:26.4001 TDB 
   4.603436962293986E+01 -1.088813162413442E+01  1.737356119338564E+03
  -2.441442995180261E-08  1.010003339246445E-06  6.976665322754810E-09
   5.797343974543883E-03  1.738000000000000E+03 -7.797771666322673E-24
2462652.620000002 = A.D. 2030-May-31 02:52:48.0001 TDB 
   4.602700312777095E+01 -1.082945318160364E+01  1.737356681262332E+03
  -2.159348937517407E-07  9.442663342776556E-07  1.160655397110477E-08
   5.797343974543884E-03  1.738000000000000E+03  6.043273041400071E-23
2462653.314000002 = A.D. 2030-May-31 19:32:09.6001 TDB 
   4.600909269294394E+01 -1.077513167553661E+01  1.737357493415488E+03
  -3.766232633494916E-07  8.664777862380925E-07  1.534773757011224E-08
   5.797343974543883E-03  1.738000000000000E+03  1.130676891616788E-22
2462654.008000001 = A.D. 2030-Jun-01 12:11:31.2001 TDB 
   4.598236011597071E+01 -1.072559022006135E+01  1.737358507698568E+03
  -5.112397629856503E-07  7.861932395879323E-07  1.838445966522067E-08
   5.797343974543882E-03  1.738000000000000E+03 -3.119108666529069E-23
2462654.702000001 = A.D. 2030-Jun-02 04:50:52.8001 TDB 
   4.594815813009576E+01 -1.068076617140048E+01  1.737359688722644E+03
  -6.271420915355626E-07  7.099223169836928E-07  2.095049084869569E-08
   5.797343974543883E-03  1.738000000000000E+03 -8.577548832954940E-23
2462655.396000002 = A.D. 2030-Jun-02 21:30:14.4001 TDB 
   4.590735142594519E+01 -1.064031427949624E+01  1.737361015677826E+03
  -7.330267294923377E-07  6.405158419503130E-07  2.329199583137618E-08
   5.797343974543883E-03  1.738000000000000E+03 -3.119108666529070E-23
2462656.090000002 = A.D. 2030-Jun-03 14:09:36.0001 TDB 
   4.586027748570181E+01 -1.060383328424200E+01  1.737362481944575E+03
  -8.375502285679516E-07  5.770030041347093E-07  2.563007433017135E-08
   5.797343974543883E-03  1.738000000000000E+03 -1.949442916580668E-23
2462656.784000001 = A.D. 2030-Jun-04 06:48:57.6001 TDB 
   4.580678990664573E+01 -1.057108832893357E+01  1.737364092552275E+03
  -9.479819328516280E-07  5.148918210767076E-07  2.812707846522238E-08
   5.797343974543883E-03  1.738000000000000E+03 -4.678662999793603E-23
2462657.478000002 = A.D. 2030-Jun-04 23:28:19.2001 TDB 
   4.574637784086777E+01 -1.054220223620302E+01  1.737365859825285E+03
  -1.069035932557997E-06  4.468973926951544E-07  3.086039942921318E-08
   5.797343974543883E-03  1.738000000000000E+03 -1.949442916580668E-23
2462658.172000002 = A.D. 2030-Jun-05 16:07:40.8001 TDB 
   4.567834681009256E+01 -1.051779220453204E+01  1.737367797756088E+03
  -1.202011104385209E-06  3.640172930402538E-07  3.380662311031812E-08
   5.797343974543883E-03  1.738000000000000E+03 -7.797771666322673E-23
2462658.866000001 = A.D. 2030-Jun-06 08:47:02.4001 TDB 
   4.560203934110683E+01 -1.049903447669737E+01  1.737369915787363E+03
  -1.344335624288694E-06  2.568365884324188E-07  3.683785568158004E-08
   5.797343974543884E-03  1.738000000000000E+03  7.797771666322673E-24
2462659.560000001 = A.D. 2030-Jun-07 01:26:24.0001 TDB 
   4.551706932714480E+01 -1.048764738630075E+01  1.737372212754702E+03
  -1.489569639202577E-06  1.169202915380370E-07  3.973072829091805E-08
   5.797343974543884E-03  1.738000000000000E+03 -4.678662999793603E-23
2462660.254000002 = A.D. 2030-Jun-07 18:05:45.6001 TDB 
   4.542354223767522E+01 -1.048579208892795E+01  1.737374671731705E+03
  -1.627871344133091E-06 -6.185882452474205E-08  4.218724100072370E-08
   5.797343974543884E-03  1.738000000000000E+03 -1.559554333264534E-23
2462660.948000002 = A.D. 2030-Jun-08 10:45:07.2001 TDB 
   4.532223446403797E+01 -1.049589930383274E+01  1.737377256430218E+03
  -1.746882709278693E-06 -2.822031769800582E-07  4.386534434028919E-08
   5.797343974543882E-03  1.738000000000000E+03 -7.797771666322673E-24
2462661.642000001 = A.D. 2030-Jun-09 03:24:28.8001 TDB 
   4.521470907687983E+01 -1.052043859195874E+01  1.737379909649851E+03
  -1.832946771435329E-06 -5.426090823671289E-07  4.441611708801463E-08
   5.797343974543884E-03  1.738000000000000E+03 -2.339331499896802E-23
2462662.336000002 = A.D. 2030-Jun-09 20:03:50.4001 TDB 
   4.510335165948912E+01 -1.056165322675281E+01  1.737382554059467E+03
  -1.872533385301524E-06 -8.370121700631426E-07  4.352368987931093E-08
   5.797343974543883E-03  1.738000000000000E+03 -5.458440166425871E-23
2462663.030000002 = A.D. 2030-Jun-10 12:43:12.0001 TDB 
   4.499131799884468E+01 -1.062128790315558E+01  1.737385095351058E+03
  -1.853728128849773E-06 -1.154907073675832E-06  4.094375587077767E-08
   5.797343974543883E-03  1.738000000000000E+03 -3.898885833161337E-23
2462663.724000001 = A.D. 2030-Jun-11 05:22:33.6001 TDB 
   4.488239442630493E+01 -1.070033794933784E+01  1.737387427558497E+03
  -1.767631696874875E-06 -1.481940759082162E-06  3.653662681656652E-08
   5.797343974543882E-03  1.738000000000000E+03 -7.017994499690405E-23
